ONEWEB-0324             
1 49193U 21083H   22044.58334491  .00047329  00000-0  11944+0 0  9992
2 49193  87.9103 290.4293 0002175  73.0971 163.9313 13.18660583  3298
ONEWEB-0325             
1 49194U 21083J   22044.58334491  .00047232  00000-0  11920+0 0  9990
2 49194  87.9100 290.3176 0002231 111.7666 110.6308 13.18658050  3300
ONEWEB-0326             
1 49195U 21083K   22044.58334491  .00046951  00000-0  11849+0 0  9998
2 49195  87.9105 290.4119 0002072  83.1200  87.8224 13.18660974  3303
ONEWEB-0327             
1 49196U 21083L   22044.58334491  .00047273  00000-0  11929+0 0  9996
2 49196  87.9115 290.3679 0002628  61.1144 183.2924 13.18664854  3304
ONEWEB-0328             
1 49197U 21083M   22044.58334491 -.01385839  00000-0 -55366+0 0  9996
2 49197  87.6502 276.4807 0020666 120.3977 313.1334 14.31709070  3523
ONEWEB-0331             
1 49198U 21083N   22044.58334491  .00047130  00000-0  11894+0 0  9991
2 49198  87.9115 290.4135 0002025  75.3700 117.6024 13.18660133  3296
ONEWEB-0333             
1 49199U 21083P   22044.58334491 -.01380194  00000-0 -52740+0 0  9990
2 49199  87.6470 276.4938 0019181 120.6682  73.2805 14.33982842  3541
ONEWEB-0334             
1 49200U 21083Q   22044.58334491  .00043940  00000-0  45641-2 0  9990
2 49200  87.1996 274.3513 0004861  64.7174 206.1288 14.89713332  3540
ONEWEB-0335             
1 49201U 21083R   22044.58334491 -.01351469  00000-0 -52791+0 0  9993
2 49201  87.6478 276.5223 0022033 113.0697 168.2090 14.33332856  3515
ONEWEB-0336             
1 49202U 21083S   22044.58334491 -.01355600  00000-0 -53276+0 0  9994
2 49202  87.6486 276.4819 0021262 107.8158 251.0757 14.33043068  3549
ONEWEB-0337             
1 49203U 21083T   22044.58334491 -.01357199  00000-0 -52464+0 0  9998
2 49203  87.6382 276.4763 0022790 113.1027 317.8218 14.33871682  3550
ONEWEB-0338             
1 49204U 21083U   22044.58334491 -.00092889  00000-0 -98378-2 0  9997
2 49204  87.2055 274.4628 0005141  85.4052  80.6824 14.89761721  3575
ONEWEB-0339             
1 49205U 21083V   22044.58334491 -.01363304  00000-0 -53543+0 0  9994
2 49205  87.6508 276.4746 0020643 115.2428 294.0448 14.33106382  3522
ONEWEB-0340             
1 49206U 21083W   22044.58334491  .00047297  00000-0  11936+0 0  9992
2 49206  87.9106 290.4210 0001942  85.3780 166.3504 13.18660929  3282
ONEWEB-0341             
1 49207U 21083X   22044.58334491  .00047198  00000-0  11911+0 0  9996
2 49207  87.9125 290.3128 0002641 103.9388 111.0524 13.18661208  3313
ONEWEB-0342             
1 49208U 21083Y   22044.58334491  .00043378  00000-0  45029-2 0  9993
2 49208  87.2018 274.3917 0005436  85.9964 243.7788 14.89739868  3536
ONEWEB-0343             
1 49209U 21083Z   22044.58334491  .00047294  00000-0  11935+0 0  9991
2 49209  87.9116 290.3682 0002610 115.8202 113.8496 13.18660858  3298
ONEWEB-0344             
1 49210U 21083AA  22044.58334491 -.01383632  00000-0 -54154+0 0  9995
2 49210  87.6481 276.4671 0021775 109.4279 168.0733 14.32740288  3537
ONEWEB-0345             
1 49211U 21083AB  22044.58334491 -.01339472  00000-0 -52857+0 0  9997
2 49211  87.6527 276.5067 0021744 110.9117 184.8705 14.32783442  3548
ONEWEB-0346             
1 49212U 21083AC  22044.58334491  .00047140  00000-0  11896+0 0  9991
2 49212  87.9115 290.3631 0002202  70.7075 129.5491 13.18663240  3296
ONEWEB-0348             
1 49213U 21083AD  22044.58334491  .00043715  00000-0  45400-2 0  9997
2 49213  87.2042 274.4403 0005085  79.1962 212.5140 14.89720355  3541
ONEWEB-0350             
1 49214U 21083AE  22044.58334491 -.01348898  00000-0 -49805+0 0  9991
2 49214  87.6473 276.4587 0019306 115.8899 114.6043 14.36217301  3534
ONEWEB-0351             
1 49215U 21083AF  22044.58334491  .00044808  00000-0  46530-2 0  9998
2 49215  87.1975 274.3110 0004635  70.5580 348.6348 14.89720053  3560
ONEWEB-0352             
1 49216U 21083AG  22044.58334491 -.00818335  00000-0 -15508+0 0  9993
2 49216  87.6024 276.2756 0020565 110.9347 275.5903 14.67043250  3533
ONEWEB-0354             
1 49217U 21083AH  22044.58334491  .00043414  00000-0  45081-2 0  9992
2 49217  87.2027 274.3997 0004108  76.7711 231.6328 14.89730643  3568
ONEWEB-0355             
1 49218U 21083AJ  22044.58334491 -.01367472  00000-0 -54825+0 0  9992
2 49218  87.6458 276.4715 0019735 118.7267 306.1878 14.32074488  3538
ONEWEB-0357             
1 49219U 21083AK  22044.58334491 -.00094107  00000-0 -99672-2 0  9996
2 49219  87.2022 274.3987 0005465  88.2324 157.6946 14.89765369  3565
ONEWEB-0332             
1 49279U 21090A   22044.58334491 -.00005562  00000-0 -60161-3 0  9999
2 49279  87.2511 250.3528 0001854 207.7616 195.1023 14.88594479  3541
ONEWEB-0347             
1 49280U 21090B   22044.58334491 -.00005301  00000-0 -57464-3 0  9994
2 49280  87.2201 250.4025 0002084 134.6110 306.0083 14.88519633  3554
ONEWEB-0349             
1 49281U 21090C   22044.58334491 -.00006454  00000-0 -65567-3 0  9998
2 49281  87.2013 250.2553 0002250 157.7686 334.9480 14.91106180  3542
ONEWEB-0353             
1 49282U 21090D   22044.58334491 -.00005405  00000-0 -58762-3 0  9993
2 49282  87.2520 250.3607 0003233 156.6168 254.9111 14.88395430  3559
ONEWEB-0356             
1 49283U 21090E   22044.58334491 -.00008753  00000-0 -88912-3 0  9993
2 49283  87.2010 250.2613 0001609 155.0789 106.0340 14.91077915  3546
ONEWEB-0358             
1 49284U 21090F   22044.58334491 -.00005423  00000-0 -58726-3 0  9995
2 49284  87.2514 250.3485 0001822 122.4976 285.4177 14.88550104  3549
ONEWEB-0359             
1 49285U 21090G   22044.58334491 -.00006597  00000-0 -71412-3 0  9996
2 49285  87.2238 250.4013 0001983 130.7783  17.3003 14.88537330  3565
ONEWEB-0360             
1 49286U 21090H   22044.58334491 -.00008363  00000-0 -84958-3 0  9999
2 49286  87.2019 250.2740 0003122 231.7085   8.4557 14.91076275  3545
ONEWEB-0361             
1 49287U 21090J   22044.58334491 -.00008123  00000-0 -82470-3 0  9991
2 49287  87.2016 250.2648 0001683 166.5096 166.2232 14.91106881  3569
ONEWEB-0362             
1 49288U 21090K   22044.58334491  .00000013  00000-0  00000-0 0  9996
2 49288  87.9286 259.9198 0001631  80.3759 163.4598 13.20349654  3320
ONEWEB-0363             
1 49289U 21090L   22044.58334491 -.00007897  00000-0 -80243-3 0  9996
2 49289  87.2033 250.2989 0003116 129.5469  89.8767 14.91073633  3554
ONEWEB-0364             
1 49290U 21090M   22044.58334491 -.00006393  00000-0 -69219-3 0  9998
2 49290  87.2554 250.4243 0001931 136.4207   3.4015 14.88537181  3545
ONEWEB-0365             
1 49291U 21090N   22044.58334491  .00010832  00000-0  26871-1 0  9995
2 49291  87.9246 259.9020 0001067 109.9682 101.8827 13.20031170  3333
ONEWEB-0366             
1 49292U 21090P   22044.58334491 -.00006938  00000-0 -75285-3 0  9995
2 49292  87.2533 250.3814 0001732 159.7155 195.3220 14.88432656  3535
ONEWEB-0367             
1 49293U 21090Q   22044.58334491 -.00007444  00000-0 -75580-3 0  9997
2 49293  87.2053 250.3299 0002222 222.5556 335.3508 14.91113133  3567
ONEWEB-0368             
1 49294U 21090R   22044.58334491  .00050297  00000-0  53738-2 0  9990
2 49294  87.2578 250.4504 0001491 206.3621   6.3068 14.88545306  3541
ONEWEB-0369             
1 49295U 21090S   22044.58334491  .00010794  00000-0  26808-1 0  9996
2 49295  87.9218 259.8541 0002368  80.0513 146.5939 13.19947327  3316
ONEWEB-0370             
1 49296U 21090T   22044.58334491 -.00007775  00000-0 -79009-3 0  9997
2 49296  87.1998 250.2358 0001137 168.8310 175.7357 14.91073810  3549
ONEWEB-0371             
1 49297U 21090U   22044.58334491  .00010631  00000-0  26491-1 0  9996
2 49297  87.9248 259.7980 0001766  91.8552 107.4025 13.19728686  3318
ONEWEB-0372             
1 49298U 21090V   22044.58334491 -.00005895  00000-0 -59917-3 0  9996
2 49298  87.2004 250.2375 0002635 238.5299 224.3203 14.91101966  3550
ONEWEB-0373             
1 49299U 21090W   22044.58334491 -.00008506  00000-0 -92088-3 0  9995
2 49299  87.2532 250.3852 0001447 205.5514  97.7981 14.88509743  3536
ONEWEB-0374             
1 49300U 21090X   22044.58334491 -.00005741  00000-0 -62197-3 0  9994
2 49300  87.2561 250.4319 0000680 210.1871 175.2138 14.88524692  3554
ONEWEB-0375             
1 49301U 21090Y   22044.58334491 -.00005629  00000-0 -60963-3 0  9999
2 49301  87.2488 250.3499 0001406 187.6960 266.1752 14.88543201  3543
ONEWEB-0376             
1 49302U 21090Z   22044.58334491  .00059599  00000-0  13440+0 0  9997
2 49302  87.9461 259.8589 0001477  92.9479 220.7220 13.26135731  3303
ONEWEB-0377             
1 49303U 21090AA  22044.58334491 -.00006730  00000-0 -72848-3 0  9990
2 49303  87.2555 250.4286 0002734 127.2763  31.3592 14.88538900  3567
ONEWEB-0378             
1 49304U 21090AB  22044.58334491 -.00007181  00000-0 -72953-3 0  9999
2 49304  87.1957 250.1702 0002102 207.9846 314.8558 14.91094224  3550
ONEWEB-0379             
1 49305U 21090AC  22044.58334491 -.00007286  00000-0 -78824-3 0  9999
2 49305  87.2548 250.4034 0000583 125.8408  59.5583 14.88550156  3561
ONEWEB-0380             
1 49306U 21090AD  22044.58334491  .00010807  00000-0  26812-1 0  9999
2 49306  87.9253 259.8800 0001287  94.7661 123.4547 13.20024738  3325
ONEWEB-0381             
1 49307U 21090AE  22044.58334491 -.00008648  00000-0 -87768-3 0  9991
2 49307  87.2045 250.3048 0001447 143.9302 164.2647 14.91115472  3548
ONEWEB-0382             
1 49308U 21090AF  22044.58334491 -.00008804  00000-0 -89448-3 0  9993
2 49308  87.1995 250.2106 0001890 158.3946 100.1041 14.91071962  3555
ONEWEB-0383             
1 49309U 21090AG  22044.58334491 -.00007715  00000-0 -82998-3 0  9997
2 49309  87.2530 250.3849 0001297 169.4329 324.0803 14.88771747  3542
ONEWEB-0384             
1 49310U 21090AH  22044.58334491 -.00008512  00000-0 -86463-3 0  9996
2 49310  87.1987 250.2182 0001167 172.7632  70.5765 14.91080840  3549
